STARLINK-36065          
1 66898U 25283W   25352.58336806 -.01544694  00000+0 -10191-1 0  9990
2 66898  53.1551  44.3514 0001143  57.7998 106.7064 15.77943872  3363
STARLINK-36064          
1 66899U 25283X   25352.58336806 -.01550187  00000+0 -10274-1 0  9997
2 66899  53.1547  44.3467 0001166  67.7094  99.0992 15.77854200  3303
STARLINK-36074          
1 66900U 25283Y   25352.58336806 -.01569074  00000+0 -10462-1 0  9994
2 66900  53.1550  44.3415 0001164  69.0871 100.0606 15.77759790  3368
STARLINK-36043          
1 66901U 25283Z   25352.58336806 -.01571435  00000+0 -10516-1 0  9999
2 66901  53.1548  44.3372 0000990  79.1121  92.2396 15.77687616  3369
STARLINK-35983          
1 66902U 25283AA  25352.58336806 -.01587304  00000+0 -10693-1 0  9998
2 66902  53.1548  44.3321 0001012  71.1353 102.5918 15.77573195  3360
STARLINK-36077          
1 66903U 25283AB  25352.58336806 -.01591371  00000+0 -10757-1 0  9999
2 66903  53.1553  44.3275 0001109  65.2550 110.6410 15.77504447  3366
STARLINK-36059          
1 66904U 25283AC  25352.58336806 -.01601436  00000+0 -10873-1 0  9993
2 66904  53.1550  44.3223 0000987  66.3517 111.7467 15.77429172  3360
STARLINK-36075          
1 66905U 25283AD  25352.58336806 -.01638342  00000+0 -10935-1 0  9999
2 66905  53.1551  44.3186 0000998  66.9716 113.2152 15.77382245  3366
1998-067XS              
1 66906U 98067XS  25352.59360331  .00023614  00000+0  40765-3 0  9994
2 66906  51.6311 113.3804 0003066 230.5170 129.5548 15.50877887  2528
1998-067XT              
1 66907U 98067XT  25352.58674511  .00053950  00000+0  87659-3 0  9991
2 66907  51.6304 113.3340 0003941 262.1658  97.8884 15.52162368  2523
1998-067XU              
1 66908U 98067XU  25352.58606995  .00054298  00000+0  87908-3 0  9996
2 66908  51.6306 113.3296 0003983 260.0245 100.0295 15.52259493  2520
SILVERSAT               
1 66909U 98067XV  25352.58523640  .00059069  00000+0  95010-3 0  9996
2 66909  51.6304 113.3244 0003867 263.4051  96.6498 15.52406005  2523
