CCSDS_OMM_VERS = 2.0
CREATION_DATE  = 
ORIGINATOR     = 

OBJECT_NAME    = STARLINK-36065
OBJECT_ID      = 2025-283W
CENTER_NAME    = EARTH
REF_FRAME      = TEME
TIME_SYSTEM    = UTC
MEAN_ELEMENT_THEORY = SGP/SGP4

EPOCH          = 2025-12-18T14:00:03.000384
MEAN_MOTION    = 15.77943872
ECCENTRICITY   = .00011439
INCLINATION    = 53.1551
RA_OF_ASC_NODE = 44.3514
ARG_OF_PERICENTER = 57.7998
MEAN_ANOMALY   = 106.7064

EPHEMERIS_TYPE = 0
CLASSIFICATION_TYPE = U
NORAD_CAT_ID   = 66898
ELEMENT_SET_NO = 999
REV_AT_EPOCH   = 336
BSTAR          = -.10191096E-1
MEAN_MOTION_DOT = -.1544694E-1
MEAN_MOTION_DDOT = 0

CCSDS_OMM_VERS = 2.0
CREATION_DATE  = 
ORIGINATOR     = 

OBJECT_NAME    = STARLINK-36064
OBJECT_ID      = 2025-283X
CENTER_NAME    = EARTH
REF_FRAME      = TEME
TIME_SYSTEM    = UTC
MEAN_ELEMENT_THEORY = SGP/SGP4

EPOCH          = 2025-12-18T14:00:03.000384
MEAN_MOTION    = 15.77854200
ECCENTRICITY   = .00011663
INCLINATION    = 53.1547
RA_OF_ASC_NODE = 44.3467
ARG_OF_PERICENTER = 67.7094
MEAN_ANOMALY   = 99.0992

EPHEMERIS_TYPE = 0
CLASSIFICATION_TYPE = U
NORAD_CAT_ID   = 66899
ELEMENT_SET_NO = 999
REV_AT_EPOCH   = 330
BSTAR          = -.10274111E-1
MEAN_MOTION_DOT = -.1550187E-1
MEAN_MOTION_DDOT = 0

CCSDS_OMM_VERS = 2.0
CREATION_DATE  = 
ORIGINATOR     = 

OBJECT_NAME    = STARLINK-36074
OBJECT_ID      = 2025-283Y
CENTER_NAME    = EARTH
REF_FRAME      = TEME
TIME_SYSTEM    = UTC
MEAN_ELEMENT_THEORY = SGP/SGP4

EPOCH          = 2025-12-18T14:00:03.000384
MEAN_MOTION    = 15.77759790
ECCENTRICITY   = .00011648
INCLINATION    = 53.1550
RA_OF_ASC_NODE = 44.3415
ARG_OF_PERICENTER = 69.0871
MEAN_ANOMALY   = 100.0606

EPHEMERIS_TYPE = 0
CLASSIFICATION_TYPE = U
NORAD_CAT_ID   = 66900
ELEMENT_SET_NO = 999
REV_AT_EPOCH   = 336
BSTAR          = -.10462269E-1
MEAN_MOTION_DOT = -.1569074E-1
MEAN_MOTION_DDOT = 0

CCSDS_OMM_VERS = 2.0
CREATION_DATE  = 
ORIGINATOR     = 

OBJECT_NAME    = STARLINK-36043
OBJECT_ID      = 2025-283Z
CENTER_NAME    = EARTH
REF_FRAME      = TEME
TIME_SYSTEM    = UTC
MEAN_ELEMENT_THEORY = SGP/SGP4

EPOCH          = 2025-12-18T14:00:03.000384
MEAN_MOTION    = 15.77687616
ECCENTRICITY   = .00009902
INCLINATION    = 53.1548
RA_OF_ASC_NODE = 44.3372
ARG_OF_PERICENTER = 79.1121
MEAN_ANOMALY   = 92.2396

EPHEMERIS_TYPE = 0
CLASSIFICATION_TYPE = U
NORAD_CAT_ID   = 66901
ELEMENT_SET_NO = 999
REV_AT_EPOCH   = 336
BSTAR          = -.10515585E-1
MEAN_MOTION_DOT = -.1571435E-1
MEAN_MOTION_DDOT = 0

CCSDS_OMM_VERS = 2.0
CREATION_DATE  = 
ORIGINATOR     = 

OBJECT_NAME    = STARLINK-35983
OBJECT_ID      = 2025-283AA
CENTER_NAME    = EARTH
REF_FRAME      = TEME
TIME_SYSTEM    = UTC
MEAN_ELEMENT_THEORY = SGP/SGP4

EPOCH          = 2025-12-18T14:00:03.000384
MEAN_MOTION    = 15.77573195
ECCENTRICITY   = .00010126
INCLINATION    = 53.1548
RA_OF_ASC_NODE = 44.3321
ARG_OF_PERICENTER = 71.1353
MEAN_ANOMALY   = 102.5918

EPHEMERIS_TYPE = 0
CLASSIFICATION_TYPE = U
NORAD_CAT_ID   = 66902
ELEMENT_SET_NO = 999
REV_AT_EPOCH   = 336
BSTAR          = -.10692674E-1
MEAN_MOTION_DOT = -.1587304E-1
MEAN_MOTION_DDOT = 0

CCSDS_OMM_VERS = 2.0
CREATION_DATE  = 
ORIGINATOR     = 

OBJECT_NAME    = STARLINK-36077
OBJECT_ID      = 2025-283AB
CENTER_NAME    = EARTH
REF_FRAME      = TEME
TIME_SYSTEM    = UTC
MEAN_ELEMENT_THEORY = SGP/SGP4

EPOCH          = 2025-12-18T14:00:03.000384
MEAN_MOTION    = 15.77504447
ECCENTRICITY   = .00011096
INCLINATION    = 53.1553
RA_OF_ASC_NODE = 44.3275
ARG_OF_PERICENTER = 65.2550
MEAN_ANOMALY   = 110.6410

EPHEMERIS_TYPE = 0
CLASSIFICATION_TYPE = U
NORAD_CAT_ID   = 66903
ELEMENT_SET_NO = 999
REV_AT_EPOCH   = 336
BSTAR          = -.10757E-1
MEAN_MOTION_DOT = -.1591371E-1
MEAN_MOTION_DDOT = 0

CCSDS_OMM_VERS = 2.0
CREATION_DATE  = 
ORIGINATOR     = 

OBJECT_NAME    = STARLINK-36059
OBJECT_ID      = 2025-283AC
CENTER_NAME    = EARTH
REF_FRAME      = TEME
TIME_SYSTEM    = UTC
MEAN_ELEMENT_THEORY = SGP/SGP4

EPOCH          = 2025-12-18T14:00:03.000384
MEAN_MOTION    = 15.77429172
ECCENTRICITY   = .00009873
INCLINATION    = 53.1550
RA_OF_ASC_NODE = 44.3223
ARG_OF_PERICENTER = 66.3517
MEAN_ANOMALY   = 111.7467

EPHEMERIS_TYPE = 0
CLASSIFICATION_TYPE = U
NORAD_CAT_ID   = 66904
ELEMENT_SET_NO = 999
REV_AT_EPOCH   = 336
BSTAR          = -.10872939E-1
MEAN_MOTION_DOT = -.1601436E-1
MEAN_MOTION_DDOT = 0

CCSDS_OMM_VERS = 2.0
CREATION_DATE  = 
ORIGINATOR     = 

OBJECT_NAME    = STARLINK-36075
OBJECT_ID      = 2025-283AD
CENTER_NAME    = EARTH
REF_FRAME      = TEME
TIME_SYSTEM    = UTC
MEAN_ELEMENT_THEORY = SGP/SGP4

EPOCH          = 2025-12-18T14:00:03.000384
MEAN_MOTION    = 15.77382245
ECCENTRICITY   = .00009982
INCLINATION    = 53.1551
RA_OF_ASC_NODE = 44.3186
ARG_OF_PERICENTER = 66.9716
MEAN_ANOMALY   = 113.2152

EPHEMERIS_TYPE = 0
CLASSIFICATION_TYPE = U
NORAD_CAT_ID   = 66905
ELEMENT_SET_NO = 999
REV_AT_EPOCH   = 336
BSTAR          = -.10934794E-1
MEAN_MOTION_DOT = -.1638342E-1
MEAN_MOTION_DDOT = 0

CCSDS_OMM_VERS = 2.0
CREATION_DATE  = 
ORIGINATOR     = 

OBJECT_NAME    = 1998-067XS
OBJECT_ID      = 1998-067XS
CENTER_NAME    = EARTH
REF_FRAME      = TEME
TIME_SYSTEM    = UTC
MEAN_ELEMENT_THEORY = SGP/SGP4

EPOCH          = 2025-12-18T14:14:47.325984
MEAN_MOTION    = 15.50877887
ECCENTRICITY   = .00030668
INCLINATION    = 51.6311
RA_OF_ASC_NODE = 113.3804
ARG_OF_PERICENTER = 230.5170
MEAN_ANOMALY   = 129.5548

EPHEMERIS_TYPE = 0
CLASSIFICATION_TYPE = U
NORAD_CAT_ID   = 66906
ELEMENT_SET_NO = 999
REV_AT_EPOCH   = 252
BSTAR          = .40765177E-3
MEAN_MOTION_DOT = .23614E-3
MEAN_MOTION_DDOT = 0

CCSDS_OMM_VERS = 2.0
CREATION_DATE  = 
ORIGINATOR     = 

OBJECT_NAME    = 1998-067XT
OBJECT_ID      = 1998-067XT
CENTER_NAME    = EARTH
REF_FRAME      = TEME
TIME_SYSTEM    = UTC
MEAN_ELEMENT_THEORY = SGP/SGP4

EPOCH          = 2025-12-18T14:04:54.777504
MEAN_MOTION    = 15.52162368
ECCENTRICITY   = .00039418
INCLINATION    = 51.6304
RA_OF_ASC_NODE = 113.3340
ARG_OF_PERICENTER = 262.1658
MEAN_ANOMALY   = 97.8884

EPHEMERIS_TYPE = 0
CLASSIFICATION_TYPE = U
NORAD_CAT_ID   = 66907
ELEMENT_SET_NO = 999
REV_AT_EPOCH   = 252
BSTAR          = .8765902E-3
MEAN_MOTION_DOT = .5395E-3
MEAN_MOTION_DDOT = 0

CCSDS_OMM_VERS = 2.0
CREATION_DATE  = 
ORIGINATOR     = 

OBJECT_NAME    = 1998-067XU
OBJECT_ID      = 1998-067XU
CENTER_NAME    = EARTH
REF_FRAME      = TEME
TIME_SYSTEM    = UTC
MEAN_ELEMENT_THEORY = SGP/SGP4

EPOCH          = 2025-12-18T14:03:56.443680
MEAN_MOTION    = 15.52259493
ECCENTRICITY   = .00039838
INCLINATION    = 51.6306
RA_OF_ASC_NODE = 113.3296
ARG_OF_PERICENTER = 260.0245
MEAN_ANOMALY   = 100.0295

EPHEMERIS_TYPE = 0
CLASSIFICATION_TYPE = U
NORAD_CAT_ID   = 66908
ELEMENT_SET_NO = 999
REV_AT_EPOCH   = 252
BSTAR          = .87908108E-3
MEAN_MOTION_DOT = .54298E-3
MEAN_MOTION_DDOT = 0

CCSDS_OMM_VERS = 2.0
CREATION_DATE  = 
ORIGINATOR     = 

OBJECT_NAME    = SILVERSAT
OBJECT_ID      = 1998-067XV
CENTER_NAME    = EARTH
REF_FRAME      = TEME
TIME_SYSTEM    = UTC
MEAN_ELEMENT_THEORY = SGP/SGP4

EPOCH          = 2025-12-18T14:02:44.424960
MEAN_MOTION    = 15.52406005
ECCENTRICITY   = .00038673
INCLINATION    = 51.6304
RA_OF_ASC_NODE = 113.3244
ARG_OF_PERICENTER = 263.4051
MEAN_ANOMALY   = 96.6498

EPHEMERIS_TYPE = 0
CLASSIFICATION_TYPE = U
NORAD_CAT_ID   = 66909
ELEMENT_SET_NO = 999
REV_AT_EPOCH   = 252
BSTAR          = .95009624E-3
MEAN_MOTION_DOT = .59069E-3
MEAN_MOTION_DDOT = 0

